OSCAR 31                
1 19420U 88074B   26116.81401897  .00000072  00000+0  10972-3 0  9997
2 19420  90.0470  21.1223 0092952 214.3406 216.6120 13.42605001844631
