[{"OBJECT_NAME":"OSCAR 31","OBJECT_ID":"1988-074B","EPOCH":"2026-04-26T19:32:11.239008","MEAN_MOTION":13.42605001,"ECCENTRICITY":0.0092952,"INCLINATION":90.047,"RA_OF_ASC_NODE":21.1223,"ARG_OF_PERICENTER":214.3406,"MEAN_ANOMALY":216.612,"EPHEMERIS_TYPE":0,"CLASSIFICATION_TYPE":"U","NORAD_CAT_ID":19420,"ELEMENT_SET_NO":999,"REV_AT_EPOCH":84463,"BSTAR":0.00010972,"MEAN_MOTION_DOT":7.2e-7,"MEAN_MOTION_DDOT":0}]
